{"fetched_at":"2026-07-20T07:40:17.151Z","source":"https://celestrak.org/NORAD/elements/gp.php?GROUP=kuiper&FORMAT=JSON","constellation":"kuiper","records":[{"OBJECT_NAME":"KUIPER-00086","OBJECT_ID":"2025-151S","EPOCH":"2026-07-19T19:37:01.230240","CLASSIFICATION_TYPE":"U","MEAN_MOTION":14.79934225,"ECCENTRICITY":0.0000845,"INCLINATION":51.9019,"RA_OF_ASC_NODE":73.8423,"ARG_OF_PERICENTER":115.1506,"MEAN_ANOMALY":244.9544,"EPHEMERIS_TYPE":0,"NORAD_CAT_ID":64832,"ELEMENT_SET_NO":999,"REV_AT_EPOCH":5490,"BSTAR":0.0002244,"MEAN_MOTION_DOT":0.0000149,"MEAN_MOTION_DDOT":0},{"OBJECT_NAME":"KUIPER-00087","OBJECT_ID":"2025-151T","EPOCH":"2026-07-19T21:41:24.840672","CLASSIFICATION_TYPE":"U","MEAN_MOTION":14.7994152,"ECCENTRICITY":0.0000796,"INCLINATION":51.8996,"RA_OF_ASC_NODE":55.9213,"ARG_OF_PERICENTER":99.3876,"MEAN_ANOMALY":260.7176,"EPHEMERIS_TYPE":0,"NORAD_CAT_ID":64833,"ELEMENT_SET_NO":999,"REV_AT_EPOCH":5515,"BSTAR":0.00028441,"MEAN_MOTION_DOT":0.00001948,"MEAN_MOTION_DDOT":0},{"OBJECT_NAME":"KUIPER-00089","OBJECT_ID":"2025-151U","EPOCH":"2026-07-19T19:56:25.999008","CLASSIFICATION_TYPE":"U","MEAN_MOTION":14.79929831,"ECCENTRICITY":0.0000647,"INCLINATION":51.9015,"RA_OF_ASC_NODE":61.2663,"ARG_OF_PERICENTER":100.3234,"MEAN_ANOMALY":259.7801,"EPHEMERIS_TYPE":0,"NORAD_CAT_ID":64834,"ELEMENT_SET_NO":999,"REV_AT_EPOCH":5508,"BSTAR":0.00022102,"MEAN_MOTION_DOT":0.00001464,"MEAN_MOTION_DDOT":0},{"OBJECT_NAME":"KUIPER-00090","OBJECT_ID":"2025-151V","EPOCH":"2026-07-19T18:30:49.609728","CLASSIFICATION_TYPE":"U","MEAN_MOTION":14.79937914,"ECCENTRICITY":0.0000732,"INCLINATION":51.9,"RA_OF_ASC_NODE":54.0344,"ARG_OF_PERICENTER":110.3565,"MEAN_ANOMALY":249.7476,"EPHEMERIS_TYPE":0,"NORAD_CAT_ID":64835,"ELEMENT_SET_NO":999,"REV_AT_EPOCH":5517,"BSTAR":0.00022511,"MEAN_MOTION_DOT":0.00001495,"MEAN_MOTION_DDOT":0},{"OBJECT_NAME":"KUIPER-00091","OBJECT_ID":"2025-151W","EPOCH":"2026-07-19T21:37:33.432096","CLASSIFICATION_TYPE":"U","MEAN_MOTION":14.7993098,"ECCENTRICITY":0.0000817,"INCLINATION":51.9021,"RA_OF_ASC_NODE":58.4733,"ARG_OF_PERICENTER":111.3112,"MEAN_ANOMALY":248.7938,"EPHEMERIS_TYPE":0,"NORAD_CAT_ID":64836,"ELEMENT_SET_NO":999,"REV_AT_EPOCH":5512,"BSTAR":0.00023439,"MEAN_MOTION_DOT":0.00001566,"MEAN_MOTION_DDOT":0},{"OBJECT_NAME":"KUIPER-00092","OBJECT_ID":"2025-151X","EPOCH":"2026-07-19T21:25:53.897088","CLASSIFICATION_TYPE":"U","MEAN_MOTION":14.7993519,"ECCENTRICITY":0.0000729,"INCLINATION":51.9015,"RA_OF_ASC_NODE":65.9999,"ARG_OF_PERICENTER":110.0299,"MEAN_ANOMALY":250.0742,"EPHEMERIS_TYPE":0,"NORAD_CAT_ID":64837,"ELEMENT_SET_NO":999,"REV_AT_EPOCH":5623,"BSTAR":0.00023844,"MEAN_MOTION_DOT":0.00001597,"MEAN_MOTION_DDOT":0},{"OBJECT_NAME":"KUIPER-00093","OBJECT_ID":"2025-151Y","EPOCH":"2026-07-19T21:21:59.754816","CLASSIFICATION_TYPE":"U","MEAN_MOTION":14.79939934,"ECCENTRICITY":0.0000674,"INCLINATION":51.9016,"RA_OF_ASC_NODE":68.4845,"ARG_OF_PERICENTER":117.3888,"MEAN_ANOMALY":242.7143,"EPHEMERIS_TYPE":0,"NORAD_CAT_ID":64838,"ELEMENT_SET_NO":999,"REV_AT_EPOCH":5498,"BSTAR":0.000055488,"MEAN_MOTION_DOT":0.00000202,"MEAN_MOTION_DDOT":0},{"OBJECT_NAME":"KUIPER-00094","OBJECT_ID":"2025-151Z","EPOCH":"2026-07-19T20:54:48.902112","CLASSIFICATION_TYPE":"U","MEAN_MOTION":14.79935032,"ECCENTRICITY":0.0001011,"INCLINATION":51.905,"RA_OF_ASC_NODE":23.6619,"ARG_OF_PERICENTER":121.7213,"MEAN_ANOMALY":238.3848,"EPHEMERIS_TYPE":0,"NORAD_CAT_ID":64839,"ELEMENT_SET_NO":999,"REV_AT_EPOCH":5561,"BSTAR":0.00023257,"MEAN_MOTION_DOT":0.00001552,"MEAN_MOTION_DDOT":0},{"OBJECT_NAME":"KUIPER-00081","OBJECT_ID":"2025-171A","EPOCH":"2026-07-19T14:35:08.730816","CLASSIFICATION_TYPE":"U","MEAN_MOTION":14.79938329,"ECCENTRICITY":0.0000297,"INCLINATION":51.9004,"RA_OF_ASC_NODE":284.7333,"ARG_OF_PERICENTER":102.5111,"MEAN_ANOMALY":257.5884,"EPHEMERIS_TYPE":0,"NORAD_CAT_ID":65132,"ELEMENT_SET_NO":999,"REV_AT_EPOCH":5257,"BSTAR":0.00018806,"MEAN_MOTION_DOT":0.00001213,"MEAN_MOTION_DDOT":0},{"OBJECT_NAME":"KUIPER-00088","OBJECT_ID":"2025-171B","EPOCH":"2026-07-19T15:45:13.152672","CLASSIFICATION_TYPE":"U","MEAN_MOTION":14.79934634,"ECCENTRICITY":0.0000482,"INCLINATION":51.9006,"RA_OF_ASC_NODE":302.0196,"ARG_OF_PERICENTER":120.1729,"MEAN_ANOMALY":239.9281,"EPHEMERIS_TYPE":0,"NORAD_CAT_ID":65133,"ELEMENT_SET_NO":999,"REV_AT_EPOCH":5233,"BSTAR":0.00021209,"MEAN_MOTION_DOT":0.00001396,"MEAN_MOTION_DDOT":0},{"OBJECT_NAME":"KUIPER-00095","OBJECT_ID":"2025-171C","EPOCH":"2026-07-19T14:39:01.888128","CLASSIFICATION_TYPE":"U","MEAN_MOTION":14.79938581,"ECCENTRICITY":0.0000242,"INCLINATION":51.8992,"RA_OF_ASC_NODE":282.2698,"ARG_OF_PERICENTER":91.4837,"MEAN_ANOMALY":268.6153,"EPHEMERIS_TYPE":0,"NORAD_CAT_ID":65134,"ELEMENT_SET_NO":999,"REV_AT_EPOCH":5260,"BSTAR":0.00019785,"MEAN_MOTION_DOT":0.00001288,"MEAN_MOTION_DDOT":0},{"OBJECT_NAME":"KUIPER-00096","OBJECT_ID":"2025-171D","EPOCH":"2026-07-19T16:45:29.424672","CLASSIFICATION_TYPE":"U","MEAN_MOTION":14.79931315,"ECCENTRICITY":0.0000348,"INCLINATION":51.9002,"RA_OF_ASC_NODE":294.3308,"ARG_OF_PERICENTER":112.64,"MEAN_ANOMALY":247.4599,"EPHEMERIS_TYPE":0,"NORAD_CAT_ID":65135,"ELEMENT_SET_NO":999,"REV_AT_EPOCH":5244,"BSTAR":0.00019875,"MEAN_MOTION_DOT":0.00001294,"MEAN_MOTION_DDOT":0},{"OBJECT_NAME":"KUIPER-00097","OBJECT_ID":"2025-171E","EPOCH":"2026-07-19T11:49:54.198624","CLASSIFICATION_TYPE":"U","MEAN_MOTION":14.79934047,"ECCENTRICITY":0.00003225,"INCLINATION":51.9026,"RA_OF_ASC_NODE":297.8956,"ARG_OF_PERICENTER":112.3893,"MEAN_ANOMALY":247.7104,"EPHEMERIS_TYPE":0,"NORAD_CAT_ID":65136,"ELEMENT_SET_NO":999,"REV_AT_EPOCH":5236,"BSTAR":0.00020651527,"MEAN_MOTION_DOT":0.00001354,"MEAN_MOTION_DDOT":0},{"OBJECT_NAME":"KUIPER-00098","OBJECT_ID":"2025-171F","EPOCH":"2026-07-19T16:37:42.715200","CLASSIFICATION_TYPE":"U","MEAN_MOTION":14.79939546,"ECCENTRICITY":0.0000383,"INCLINATION":51.9018,"RA_OF_ASC_NODE":299.377,"ARG_OF_PERICENTER":100.7437,"MEAN_ANOMALY":259.3569,"EPHEMERIS_TYPE":0,"NORAD_CAT_ID":65137,"ELEMENT_SET_NO":999,"REV_AT_EPOCH":5171,"BSTAR":0.00021132,"MEAN_MOTION_DOT":0.0000139,"MEAN_MOTION_DDOT":0},{"OBJECT_NAME":"KUIPER-00099","OBJECT_ID":"2025-171G","EPOCH":"2026-07-19T12:50:06.078912","CLASSIFICATION_TYPE":"U","MEAN_MOTION":14.79923131,"ECCENTRICITY":0.00008763,"INCLINATION":51.9031,"RA_OF_ASC_NODE":290.0812,"ARG_OF_PERICENTER":99.1565,"MEAN_ANOMALY":260.9497,"EPHEMERIS_TYPE":0,"NORAD_CAT_ID":65138,"ELEMENT_SET_NO":999,"REV_AT_EPOCH":5248,"BSTAR":-0.000065555574,"MEAN_MOTION_DOT":-0.00000721,"MEAN_MOTION_DDOT":0},{"OBJECT_NAME":"KUIPER-00100","OBJECT_ID":"2025-171H","EPOCH":"2026-07-19T12:05:23.891136","CLASSIFICATION_TYPE":"U","MEAN_MOTION":14.79937297,"ECCENTRICITY":0.0000382,"INCLINATION":51.9022,"RA_OF_ASC_NODE":287.6881,"ARG_OF_PERICENTER":106.7343,"MEAN_ANOMALY":253.3661,"EPHEMERIS_TYPE":0,"NORAD_CAT_ID":65139,"ELEMENT_SET_NO":999,"REV_AT_EPOCH":5251,"BSTAR":0.00021627637,"MEAN_MOTION_DOT":0.00001428,"MEAN_MOTION_DDOT":0},{"OBJECT_NAME":"KUIPER-00102","OBJECT_ID":"2025-171J","EPOCH":"2026-07-19T13:38:45.444192","CLASSIFICATION_TYPE":"U","MEAN_MOTION":14.79933909,"ECCENTRICITY":0.0000349,"INCLINATION":51.8992,"RA_OF_ASC_NODE":289.8871,"ARG_OF_PERICENTER":75.5398,"MEAN_ANOMALY":284.5603,"EPHEMERIS_TYPE":0,"NORAD_CAT_ID":65140,"ELEMENT_SET_NO":999,"REV_AT_EPOCH":5248,"BSTAR":0.00018768,"MEAN_MOTION_DOT":0.0000121,"MEAN_MOTION_DDOT":0},{"OBJECT_NAME":"KUIPER-00103","OBJECT_ID":"2025-171K","EPOCH":"2026-07-19T15:37:26.018976","CLASSIFICATION_TYPE":"U","MEAN_MOTION":14.79940091,"ECCENTRICITY":0.0000358,"INCLINATION":51.9004,"RA_OF_ASC_NODE":307.022,"ARG_OF_PERICENTER":113.771,"MEAN_ANOMALY":246.329,"EPHEMERIS_TYPE":0,"NORAD_CAT_ID":65141,"ELEMENT_SET_NO":999,"REV_AT_EPOCH":5225,"BSTAR":0.00022072,"MEAN_MOTION_DOT":0.00001462,"MEAN_MOTION_DDOT":0},{"OBJECT_NAME":"KUIPER-00104","OBJECT_ID":"2025-171L","EPOCH":"2026-07-19T15:56:52.014624","CLASSIFICATION_TYPE":"U","MEAN_MOTION":14.79930271,"ECCENTRICITY":0.0000351,"INCLINATION":51.9028,"RA_OF_ASC_NODE":294.4641,"ARG_OF_PERICENTER":115.2849,"MEAN_ANOMALY":244.8149,"EPHEMERIS_TYPE":0,"NORAD_CAT_ID":65142,"ELEMENT_SET_NO":999,"REV_AT_EPOCH":5243,"BSTAR":0.00020656,"MEAN_MOTION_DOT":0.00001354,"MEAN_MOTION_DDOT":0},{"OBJECT_NAME":"KUIPER-00105","OBJECT_ID":"2025-171M","EPOCH":"2026-07-19T16:33:48.878784","CLASSIFICATION_TYPE":"U","MEAN_MOTION":14.79948035,"ECCENTRICITY":0.0000344,"INCLINATION":51.9018,"RA_OF_ASC_NODE":301.9509,"ARG_OF_PERICENTER":112.7192,"MEAN_ANOMALY":247.3807,"EPHEMERIS_TYPE":0,"NORAD_CAT_ID":65143,"ELEMENT_SET_NO":999,"REV_AT_EPOCH":5233,"BSTAR":0.00020609,"MEAN_MOTION_DOT":0.00001351,"MEAN_MOTION_DDOT":0},{"OBJECT_NAME":"KUIPER-00106","OBJECT_ID":"2025-171N","EPOCH":"2026-07-19T16:06:05.518080","CLASSIFICATION_TYPE":"U","MEAN_MOTION":14.79929121,"ECCENTRICITY":0.0000316,"INCLINATION":51.9014,"RA_OF_ASC_NODE":280.7991,"ARG_OF_PERICENTER":110.3478,"MEAN_ANOMALY":249.7518,"EPHEMERIS_TYPE":0,"NORAD_CAT_ID":65144,"ELEMENT_SET_NO":999,"REV_AT_EPOCH":5263,"BSTAR":0.00016734,"MEAN_MOTION_DOT":0.00001055,"MEAN_MOTION_DDOT":0},{"OBJECT_NAME":"KUIPER-00107","OBJECT_ID":"2025-171P","EPOCH":"2026-07-19T10:32:03.456960","CLASSIFICATION_TYPE":"U","MEAN_MOTION":14.79928554,"ECCENTRICITY":0.00003412,"INCLINATION":51.9015,"RA_OF_ASC_NODE":285.5032,"ARG_OF_PERICENTER":111.9177,"MEAN_ANOMALY":248.1821,"EPHEMERIS_TYPE":0,"NORAD_CAT_ID":65145,"ELEMENT_SET_NO":999,"REV_AT_EPOCH":5254,"BSTAR":0.00018938957,"MEAN_MOTION_DOT":0.00001223,"MEAN_MOTION_DDOT":0},{"OBJECT_NAME":"KUIPER-00108","OBJECT_ID":"2025-171Q","EPOCH":"2026-07-19T12:38:30.629760","CLASSIFICATION_TYPE":"U","MEAN_MOTION":14.79930202,"ECCENTRICITY":0.00003648,"INCLINATION":51.9033,"RA_OF_ASC_NODE":297.6527,"ARG_OF_PERICENTER":102.3969,"MEAN_ANOMALY":257.7034,"EPHEMERIS_TYPE":0,"NORAD_CAT_ID":65146,"ELEMENT_SET_NO":999,"REV_AT_EPOCH":5238,"BSTAR":0.0002048291,"MEAN_MOTION_DOT":0.00001341,"MEAN_MOTION_DDOT":0}]}
